      2.10          N: GNSS NAV DATA                        RINEX VERSION / TYPE
fic2rin                                 02/23/2023 00:17:31 PGM / RUN BY / DATE
                                                            END OF HEADER
3  23  2 22  1 59 44.0 -.360152218491D-03  .488853402203D-11  .000000000000D+00
     .490000000000D+02  .205937500000D+02  .462162108050D-08  .159175717357D+01
     .938773155212D-06  .448327651247D-02  .216625630856D-05  .515371339607D+04
     .266384000000D+06 -.147148966789D-06 -.123075717135D+01  .111758708954D-07
     .977304364147D+00  .345687500000D+03  .101318742444D+01 -.844428030960D-08
     .492877673191D-10  .100000000000D+01  .225000000000D+04  .000000000000D+00
     .240000000000D+01  .000000000000D+00  .186264514923D-08  .490000000000D+02
     .259200000000D+06  .400000000000D+01
7  23  2 22  1 59 44.0  .236510299146D-03 -.727595761418D-11  .000000000000D+00
     .220000000000D+02  .441562500000D+02  .448590114150D-08  .215034420343D+01
     .217929482460D-05  .167818012415D-01  .119693577290D-04  .515359794426D+04
     .266384000000D+06 -.178813934326D-06  .865898920189D+00 -.398606061935D-06
     .950554491599D+00  .143062500000D+03 -.222358668193D+01 -.792604443728D-08
     .552880172536D-09  .100000000000D+01  .225000000000D+04  .000000000000D+00
     .240000000000D+01  .000000000000D+00 -.111758708954D-07  .220000000000D+02
     .259200000000D+06  .400000000000D+01
31 23  2 22 14  0  0.0 -.209926161915D-03 -.102318153949D-11  .000000000000D+00
     .580000000000D+02  .348750000000D+02  .453697469749D-08  .157191112157D+01
     .213272869587D-05  .107649595011D-01  .133905559778D-04  .515367027855D+04
     .309600000000D+06 -.109896063805D-06  .885134554984D+00  .180676579475D-06
     .954663742171D+00  .120500000000D+03  .502302152067D+00 -.810962351266D-08
     .270011247052D-09  .100000000000D+01  .225000000000D+04  .000000000000D+00
     .240000000000D+01  .000000000000D+00 -.135041773319D-07  .580000000000D+02
     .302400000000D+06  .400000000000D+01
32 23  2 22 14  0  0.0 -.403887126595D-03 -.113686837722D-10  .000000000000D+00
     .430000000000D+02 -.102125000000D+03  .479055668877D-08 -.618837733738D+00
    -.520236790180D-05  .665926211514D-02  .890903174877D-05  .515371207237D+04
     .309600000000D+06  .931322574615D-08 -.192935133940D+00  .115483999252D-06
     .959724280094D+00  .207687500000D+03 -.225161694719D+01 -.833963309348D-08
    -.470733893670D-09  .100000000000D+01  .225000000000D+04  .000000000000D+00
     .240000000000D+01  .000000000000D+00  .465661287308D-09  .430000000000D+02
     .302400000000D+06  .400000000000D+01
24 23  2 22 14  0  0.0 -.844388268888D-04 -.158024704433D-10  .000000000000D+00
     .420000000000D+02  .502812500000D+02  .481091467962D-08  .303952343871D+01
     .238232314587D-05  .137188825756D-01  .134389847517D-04  .515367211151D+04
     .309600000000D+06 -.745058059692D-08  .776492187308D+00 -.191852450371D-06
     .934213801983D+00  .101718750000D+03  .885735166242D+00 -.796890336538D-08
     .302155443130D-09  .100000000000D+01  .225000000000D+04  .000000000000D+00
     .240000000000D+01  .000000000000D+00  .232830643654D-08  .420000000000D+02
     .302400000000D+06  .400000000000D+01
16 23  2 22 14  0  0.0 -.518889166415D-03  .181898940355D-11  .000000000000D+00
     .350000000000D+02  .216875000000D+02  .502806658201D-08 -.491580684400D+00
     .127777457237D-05  .134045287268D-01  .368244946003D-05  .515354635048D+04
     .309600000000D+06  .558793544769D-08  .199878217460D+01  .212341547012D-06
     .965647377924D+00  .308843750000D+03  .773785265136D+00 -.869571935447D-08
    -.571452374714D-11  .100000000000D+01  .225000000000D+04  .000000000000D+00
     .240000000000D+01  .000000000000D+00 -.102445483208D-07  .350000000000D+02
     .302400000000D+06  .400000000000D+01
30 23  2 22 14  0  0.0 -.529416836798D-03  .136424205266D-11  .000000000000D+00
     .360000000000D+02  .497812500000D+02  .502949521295D-08  .201638506262D+01
     .263378024101D-05  .616212352179D-02  .120587646961D-04  .515364403534D+04
     .309600000000D+06 -.171363353729D-06  .873074830340D+00  .223517417908D-07
     .935694336522D+00  .138093750000D+03 -.264850786119D+01 -.827713048999D-08
     .344300055765D-09  .100000000000D+01  .225000000000D+04  .000000000000D+00
     .240000000000D+01  .000000000000D+00  .372529029846D-08  .360000000000D+02
     .302400000000D+06  .400000000000D+01
15 23  2 22 14  0  0.0  .156997703016D-04  .329691829393D-11  .000000000000D+00
     .530000000000D+02 -.109312500000D+03  .528557730837D-08 -.227201239222D+01
    -.575184822083D-05  .147498045117D-01  .726990401745D-05  .515368337822D+04
     .309600000000D+06  .195577740669D-06 -.321556938091D+00  .707805156708D-07
     .932196407231D+00  .215343750000D+03  .118048415540D+01 -.839249243814D-08
    -.318941856637D-09  .100000000000D+01  .225000000000D+04  .000000000000D+00
     .240000000000D+01  .000000000000D+00 -.107102096081D-07  .530000000000D+02
     .302400000000D+06  .400000000000D+01
27 23  2 22 14  0  0.0  .963509082794D-04 -.898126018001D-11  .000000000000D+00
     .810000000000D+02 -.722187500000D+02  .431946563737D-08 -.128871578981D+01
    -.375322997570D-05  .113744881237D-01  .880286097527D-05  .515366055107D+04
     .309600000000D+06  .335276126862D-06  .295435826271D+01 -.670552253723D-07
     .969072630908D+00  .212468750000D+03  .700703397486D+00 -.800711924294D-08
    -.605739517197D-09  .100000000000D+01  .225000000000D+04  .000000000000D+00
     .240000000000D+01  .000000000000D+00  .186264514923D-08  .810000000000D+02
     .302400000000D+06  .400000000000D+01
21 23  2 22 14  0  0.0  .154129229486D-03  .227373675443D-12  .000000000000D+00
     .570000000000D+02  .514062500000D+02  .419910348094D-08 -.135804091894D+01
     .258907675743D-05  .248634015443D-01  .131558626890D-04  .515365453529D+04
     .309600000000D+06 -.439584255219D-06 -.236386969867D+01 -.931322574615D-07
     .961591989069D+00  .137343750000D+03 -.809760381016D+00 -.812926718804D-08
     .499306512406D-09  .100000000000D+01  .225000000000D+04  .000000000000D+00
     .240000000000D+01  .000000000000D+00 -.102445483208D-07  .570000000000D+02
     .302400000000D+06  .400000000000D+01
26 23  2 22 14  0  0.0  .241688918322D-03  .227373675443D-12  .000000000000D+00
     .420000000000D+02  .450937500000D+02  .571095216980D-08  .484681334523D+00
     .251643359661D-05  .785737764090D-02  .358931720257D-05  .515363705444D+04
     .309600000000D+06  .111758708954D-07  .184520979790D+01  .819563865662D-07
     .934300702243D+00  .291562500000D+03  .453483146490D+00 -.895465871176D-08
     .117862052285D-09  .100000000000D+01  .225000000000D+04  .000000000000D+00
     .240000000000D+01  .000000000000D+00  .698491930962D-08  .420000000000D+02
     .302400000000D+06  .400000000000D+01
17 23  2 22 14  0  0.0  .701617449522D-03  .227373675443D-11  .000000000000D+00
     .390000000000D+02 -.553750000000D+02  .414052961254D-08 -.134044548303D+01
    -.277534127235D-05  .136390336556D-01  .101011246443D-04  .515372291374D+04
     .309600000000D+06 -.245869159698D-06  .301934788782D+01  .264495611191D-06
     .975749576275D+00  .197250000000D+03 -.141911120512D+01 -.805319259065D-08
    -.557166065346D-09  .100000000000D+01  .225000000000D+04  .000000000000D+00
     .240000000000D+01  .000000000000D+00 -.111758708954D-07  .390000000000D+02
     .302400000000D+06  .400000000000D+01
13 23  2 22 14  0  0.0  .480190850794D-03  .602540239925D-11  .000000000000D+00
     .740000000000D+02 -.814375000000D+02  .432553731885D-08 -.175827800057D+01
    -.431388616562D-05  .677685858682D-02  .107362866402D-04  .515367079926D+04
     .309600000000D+06  .111758708954D-06 -.469902248515D-01  .167638063431D-07
     .969992638144D+00  .175250000000D+03  .933513096407D+00 -.788675708652D-08
    -.337871216549D-09  .100000000000D+01  .225000000000D+04  .000000000000D+00
     .240000000000D+01  .000000000000D+00 -.111758708954D-07  .740000000000D+02
     .302400000000D+06  .400000000000D+01
28 23  2 22 14  0  0.0  .221864320338D-04  .136424205266D-10  .000000000000D+00
     .440000000000D+02  .289687500000D+02  .436661045828D-08  .568900946105D+00
     .164844095707D-05  .996535061859D-03  .133700668812D-04  .515363698006D+04
     .309600000000D+06  .186264514923D-08  .827134963114D+00  .130385160446D-07
     .961766456679D+00  .123500000000D+03  .169230205707D+01 -.793461622290D-08
     .330370904131D-09  .100000000000D+01  .225000000000D+04  .000000000000D+00
     .340000000000D+01  .000000000000D+00 -.139698386192D-08  .300000000000D+03
     .302400000000D+06  .400000000000D+01
14 23  2 22 14  0  0.0 -.209757126868D-04  .932232069317D-11  .000000000000D+00
     .154000000000D+03  .280625000000D+02  .534450833451D-08  .142269163275D+01
     .156462192535D-05  .270709791221D-02  .320188701153D-05  .515366363907D+04
     .309600000000D+06  .856816768646D-07  .194322044355D+01  .353902578354D-07
     .949245133104D+00  .310968750000D+03 -.308460489486D+01 -.874715006820D-08
    -.185722021782D-10  .100000000000D+01  .225000000000D+04  .000000000000D+00
     .240000000000D+01  .000000000000D+00 -.791624188423D-08  .154000000000D+03
     .302400000000D+06  .400000000000D+01
23 23  2 22 14  0  0.0  .729691237211D-05  .170530256582D-11  .000000000000D+00
     .380000000000D+02  .319375000000D+02  .480270005173D-08  .185241815119D+01
     .160373747349D-05  .299965462182D-02  .299327075481D-05  .515364208031D+04
     .309600000000D+06 -.372529029846D-08 -.126054078050D+01  .391155481339D-07
     .972175175867D+00  .325437500000D+03 -.309761515784D+01 -.848892502637D-08
     .269296931584D-09  .100000000000D+01  .225000000000D+04  .000000000000D+00
     .240000000000D+01  .000000000000D+00 -.838190317154D-08  .806000000000D+03
     .302400000000D+06  .400000000000D+01
